{
  "type": "FeatureCollection",
  "features": [
    {
      "type": "Feature",
      "properties": {
        "norad_id": 30380,
        "name": "FENGYUN 1C DEB",
        "group": "fengyun-1c-debris",
        "lat": 36.10725912015116,
        "lon": -138.39847063911432,
        "alt_km": 680.3848768593361,
        "timestamp": "2025-12-13T08:49:15.962163+00:00",
        "meta_object_name": "FENGYUN 1C DEB",
        "meta_object_id": "1999-025ACT",
        "meta_epoch": "2025-12-12T13:56:20.837472",
        "meta_mean_motion": 14.50667728,
        "meta_eccentricity": 0.01774884,
        "meta_inclination": 98.9145,
        "meta_ra_of_asc_node": 34.1943,
        "meta_arg_of_pericenter": 217.8645,
        "meta_mean_anomaly": 140.9956,
        "meta_ephemeris_type": 0,
        "meta_classification_type": "U",
        "meta_norad_cat_id": 30380,
        "meta_element_set_no": 999,
        "meta_rev_at_epoch": 99563,
        "meta_bstar": 0.00045970822,
        "meta_mean_motion_dot": 2.152e-05,
        "meta_mean_motion_ddot": 0,
        "tle_line1": "1 30380U 99025ACT 25346.58079673  .00002152  00000+0  45971-3 0  9992",
        "tle_line2": "2 30380  98.9145  34.1943 0177488 217.8645 140.9956 14.50667728995636"
      },
      "geometry": {
        "type": "Point",
        "coordinates": [
          -138.39847063911432,
          36.10725912015116
        ]
      }
    },
    {
      "type": "Feature",
      "properties": {
        "norad_id": 30381,
        "name": "FENGYUN 1C DEB",
        "group": "fengyun-1c-debris",
        "lat": 25.21665588437225,
        "lon": 18.15987716411949,
        "alt_km": 822.2709827263361,
        "timestamp": "2025-12-13T08:49:15.962173+00:00",
        "meta_object_name": "FENGYUN 1C DEB",
        "meta_object_id": "1999-025ACU",
        "meta_epoch": "2025-12-10T12:43:11.568000",
        "meta_mean_motion": 14.12931,
        "meta_eccentricity": 0.0054669,
        "meta_inclination": 98.8137,
        "meta_ra_of_asc_node": 19.557,
        "meta_arg_of_pericenter": 82.3976,
        "meta_mean_anomaly": 278.3401,
        "meta_ephemeris_type": 0,
        "meta_classification_type": "U",
        "meta_norad_cat_id": 30381,
        "meta_element_set_no": 999,
        "meta_rev_at_epoch": 92135,
        "meta_bstar": 0.001434,
        "meta_mean_motion_dot": 2.666e-05,
        "meta_mean_motion_ddot": 0,
        "tle_line1": "1 30381U 99025ACU 25344.52999500  .00002666  00000+0  14340-2 0  9990",
        "tle_line2": "2 30381  98.8137  19.5570 0054669  82.3976 278.3401 14.12931000921351"
      },
      "geometry": {
        "type": "Point",
        "coordinates": [
          18.15987716411949,
          25.21665588437225
        ]
      }
    },
    {
      "type": "Feature",
      "properties": {
        "norad_id": 30382,
        "name": "FENGYUN 1C DEB",
        "group": "fengyun-1c-debris",
        "lat": 39.64689867152825,
        "lon": 18.604281412420622,
        "alt_km": 724.9950117600056,
        "timestamp": "2025-12-13T08:49:15.962183+00:00",
        "meta_object_name": "FENGYUN 1C DEB",
        "meta_object_id": "1999-025ACV",
        "meta_epoch": "2025-12-12T16:20:48.260832",
        "meta_mean_motion": 14.25288117,
        "meta_eccentricity": 0.01547259,
        "meta_inclination": 98.4996,
        "meta_ra_of_asc_node": 25.0571,
        "meta_arg_of_pericenter": 357.2264,
        "meta_mean_anomaly": 121.6861,
        "meta_ephemeris_type": 0,
        "meta_classification_type": "U",
        "meta_norad_cat_id": 30382,
        "meta_element_set_no": 999,
        "meta_rev_at_epoch": 97534,
        "meta_bstar": 0.0012738746,
        "meta_mean_motion_dot": 3.355e-05,
        "meta_mean_motion_ddot": 0,
        "tle_line1": "1 30382U 99025ACV 25346.68111413  .00003355  00000+0  12739-2 0  9995",
        "tle_line2": "2 30382  98.4996  25.0571 0154725 357.2264 121.6861 14.25288117975348"
      },
      "geometry": {
        "type": "Point",
        "coordinates": [
          18.604281412420622,
          39.64689867152825
        ]
      }
    },
    {
      "type": "Feature",
      "properties": {
        "norad_id": 30385,
        "name": "FENGYUN 1C DEB",
        "group": "fengyun-1c-debris",
        "lat": 25.25588944734864,
        "lon": 3.7795256394816144,
        "alt_km": 772.9576098380239,
        "timestamp": "2025-12-13T08:49:15.962193+00:00",
        "meta_object_name": "FENGYUN 1C DEB",
        "meta_object_id": "1999-025ACY",
        "meta_epoch": "2025-12-13T00:38:53.665728",
        "meta_mean_motion": 14.38787907,
        "meta_eccentricity": 0.01246755,
        "meta_inclination": 99.0818,
        "meta_ra_of_asc_node": 7.7468,
        "meta_arg_of_pericenter": 288.7166,
        "meta_mean_anomaly": 132.7169,
        "meta_ephemeris_type": 0,
        "meta_classification_type": "U",
        "meta_norad_cat_id": 30385,
        "meta_element_set_no": 999,
        "meta_rev_at_epoch": 98773,
        "meta_bstar": 0.00044708615,
        "meta_mean_motion_dot": 1.45e-05,
        "meta_mean_motion_ddot": 0,
        "tle_line1": "1 30385U 99025ACY 25347.02701002  .00001450  00000+0  44709-3 0  9993",
        "tle_line2": "2 30385  99.0818   7.7468 0124675 288.7166 132.7169 14.38787907987738"
      },
      "geometry": {
        "type": "Point",
        "coordinates": [
          3.7795256394816144,
          25.25588944734864
        ]
      }
    },
    {
      "type": "Feature",
      "properties": {
        "norad_id": 30386,
        "name": "FENGYUN 1C DEB",
        "group": "fengyun-1c-debris",
        "lat": -74.09382553741082,
        "lon": -84.96526966477239,
        "alt_km": 1197.6941974378078,
        "timestamp": "2025-12-13T08:49:15.962203+00:00",
        "meta_object_name": "FENGYUN 1C DEB",
        "meta_object_id": "1999-025ACZ",
        "meta_epoch": "2025-12-12T03:52:55.217280",
        "meta_mean_motion": 13.55568173,
        "meta_eccentricity": 0.03036541,
        "meta_inclination": 98.69,
        "meta_ra_of_asc_node": 241.5137,
        "meta_arg_of_pericenter": 157.272,
        "meta_mean_anomaly": 2.1698,
        "meta_ephemeris_type": 0,
        "meta_classification_type": "U",
        "meta_norad_cat_id": 30386,
        "meta_element_set_no": 999,
        "meta_rev_at_epoch": 92821,
        "meta_bstar": 0.002142088,
        "meta_mean_motion_dot": 1.966e-05,
        "meta_mean_motion_ddot": 0,
        "tle_line1": "1 30386U 99025ACZ 25346.16175020  .00001966  00000+0  21421-2 0  9990",
        "tle_line2": "2 30386  98.6900 241.5137 0303654 157.2720   2.1698 13.55568173928214"
      },
      "geometry": {
        "type": "Point",
        "coordinates": [
          -84.96526966477239,
          -74.09382553741082
        ]
      }
    },
    {
      "type": "Feature",
      "properties": {
        "norad_id": 30387,
        "name": "FENGYUN 1C DEB",
        "group": "fengyun-1c-debris",
        "lat": 24.17421647034694,
        "lon": -173.66049477221472,
        "alt_km": 841.0464246977508,
        "timestamp": "2025-12-13T08:49:15.962214+00:00",
        "meta_object_name": "FENGYUN 1C DEB",
        "meta_object_id": "1999-025ADA",
        "meta_epoch": "2025-12-12T19:21:59.483808",
        "meta_mean_motion": 14.15052723,
        "meta_eccentricity": 0.00011801,
        "meta_inclination": 98.6566,
        "meta_ra_of_asc_node": 1.8745,
        "meta_arg_of_pericenter": 96.4608,
        "meta_mean_anomaly": 84.7167,
        "meta_ephemeris_type": 0,
        "meta_classification_type": "U",
        "meta_norad_cat_id": 30387,
        "meta_element_set_no": 999,
        "meta_rev_at_epoch": 97325,
        "meta_bstar": 0.00037811325,
        "meta_mean_motion_dot": 6.9e-06,
        "meta_mean_motion_ddot": 0,
        "tle_line1": "1 30387U 99025ADA 25346.80693847  .00000690  00000+0  37811-3 0  9998",
        "tle_line2": "2 30387  98.6566   1.8745 0001180  96.4608  84.7167 14.15052723973250"
      },
      "geometry": {
        "type": "Point",
        "coordinates": [
          -173.66049477221472,
          24.17421647034694
        ]
      }
    },
    {
      "type": "Feature",
      "properties": {
        "norad_id": 30388,
        "name": "FENGYUN 1C DEB",
        "group": "fengyun-1c-debris",
        "lat": 77.49708935373879,
        "lon": -35.01519063491012,
        "alt_km": 667.9380815442009,
        "timestamp": "2025-12-13T08:49:15.962224+00:00",
        "meta_object_name": "FENGYUN 1C DEB",
        "meta_object_id": "1999-025ADB",
        "meta_epoch": "2025-12-13T00:08:10.840128",
        "meta_mean_motion": 14.19769588,
        "meta_eccentricity": 0.02221269,
        "meta_inclination": 98.5994,
        "meta_ra_of_asc_node": 7.6647,
        "meta_arg_of_pericenter": 62.047,
        "meta_mean_anomaly": 329.504,
        "meta_ephemeris_type": 0,
        "meta_classification_type": "U",
        "meta_norad_cat_id": 30388,
        "meta_element_set_no": 999,
        "meta_rev_at_epoch": 97436,
        "meta_bstar": 0.00063695435,
        "meta_mean_motion_dot": 1.683e-05,
        "meta_mean_motion_ddot": 0,
        "tle_line1": "1 30388U 99025ADB 25347.00568102  .00001683  00000+0  63695-3 0  9999",
        "tle_line2": "2 30388  98.5994   7.6647 0222126  62.0470 329.5040 14.19769588974362"
      },
      "geometry": {
        "type": "Point",
        "coordinates": [
          -35.01519063491012,
          77.49708935373879
        ]
      }
    }
  ]
}